OBJECT_NAME,OBJECT_ID,EPOCH,MEAN_MOTION,ECCENTRICITY,INCLINATION,RA_OF_ASC_NODE,ARG_OF_PERICENTER,MEAN_ANOMALY,EPHEMERIS_TYPE,CLASSIFICATION_TYPE,NORAD_CAT_ID,ELEMENT_SET_NO,REV_AT_EPOCH,BSTAR,MEAN_MOTION_DOT,MEAN_MOTION_DDOT
COSMOS 2532 (RODNIK-S 18),2018-097C,2026-07-10T06:54:42.984864,12.42910113,.00182449,82.5118,207.7854,11.4867,348.6625,0,U,43753,999,34514,-.16338556E-3,-.13E-6,0
MINXSS-2,2018-099A,2026-07-10T04:09:46.578528,15.48559417,.00082804,97.4528,268.1562,176.0626,184.0691,0,U,43758,999,41768,.57667043E-3,.30749E-3,0
SIRION PATHFINDER-2,2018-099B,2026-07-09T10:41:18.198528,15.14748987,.00078871,97.4244,238.9746,212.4979,147.5769,0,U,43759,999,41599,.1650276E-3,.2996E-4,0
AISTECHSAT 2,2018-099L,2026-07-09T09:43:27.595200,15.15677823,.00040361,97.4285,237.9540,200.8293,159.2775,0,U,43768,999,41564,.2213222E-3,.4147E-4,0
FOX-1CLIFF (AO-95),2018-099N,2026-07-10T03:28:44.388480,15.27204994,.00069822,97.4377,251.3120,261.2710,98.7738,0,U,43770,999,41672,.29948589E-3,.7917E-4,0
RANGE-A,2018-099R,2026-07-09T15:46:08.743296,15.13579951,.0008493,97.3959,232.5795,267.8830,92.1429,0,U,43773,999,41589,.18729816E-3,.3299E-4,0
SNUSAT-2,2018-099AA,2026-07-09T22:47:16.290240,15.22189397,.00096579,97.4052,243.9863,206.5950,153.4792,0,U,43782,999,41649,.26288658E-3,.5973E-4,0
SNUGLITE,2018-099AC,2026-07-10T03:19:09.560640,15.27686786,.00031077,97.3861,245.1973,173.2092,186.9190,0,U,43784,999,41682,.30310506E-3,.8129E-4,0
ITASAT,2018-099AE,2026-07-10T03:22:39.328608,15.19343715,.00107302,97.4020,242.1964,270.9097,89.0908,0,U,43786,999,41639,.21844873E-3,.4555E-4,0
EAGLET-I,2018-099AJ,2026-07-10T00:02:17.674080,15.13111405,.00094018,97.4224,240.0663,265.0904,94.9254,0,U,43790,999,41578,.1550528E-3,.2684E-4,0
ESEO,2018-099AL,2026-07-10T01:30:26.428896,15.04308602,.00106703,97.3951,227.4708,253.6282,106.3771,0,U,43792,999,41524,.87351174E-4,.116E-4,0
THEA,2018-099AQ,2026-07-10T03:25:14.181600,15.35819372,.00075409,97.4435,261.0687,191.2682,168.8394,0,U,43796,999,41621,.40740163E-3,.14138E-3,0
ASTROCAST 0.1,2018-099AS,2026-07-08T18:07:43.087584,15.51109059,.00056344,97.4369,268.9463,145.5224,214.6394,0,U,43798,999,41777,.53622922E-3,.3125E-3,0
JY1SAT (JO-97),2018-099AX,2026-07-10T02:55:50.056032,15.34409607,.00064067,97.4121,254.0449,173.8802,186.2520,0,U,43803,999,41714,.40848447E-3,.13549E-3,0
SUOMI-100,2018-099AY,2026-07-10T02:47:55.025376,15.28953452,.00100311,97.4180,251.4306,189.6683,170.4366,0,U,43804,999,41692,.3426691E-3,.9577E-4,0
CENTAURI-1,2018-099BD,2026-07-10T02:27:45.583488,15.16592790,.00126199,97.4212,242.3314,244.5950,115.3977,0,U,43809,999,41597,.19005394E-3,.3652E-4,0
GLOBAL-2,2018-099BG,2026-07-10T02:07:49.564704,15.08809515,.00076788,97.3551,226.6497,81.0751,279.1347,0,U,43812,999,41536,.11743974E-3,.1788E-4,0
SEAHAWK-1,2018-099BQ,2026-07-08T16:29:02.122368,15.23168577,.00073041,97.3949,241.8476,223.0542,137.0124,0,U,43820,999,41580,.27376045E-3,.6404E-4,0
SAUDISAT 5A,2018-102A,2026-07-10T08:16:29.760096,15.28289390,.00108261,97.3059,252.4809,58.9282,301.3019,0,U,43831,999,41921,.13464316E-3,.3642E-4,0
SAUDISAT 5B,2018-102C,2026-07-10T07:03:53.459136,15.28534002,.00115732,97.3168,255.5430,60.5899,299.6494,0,U,43833,999,41932,.12996955E-3,.354E-4,0
ISAT,2018-111D,2026-07-09T06:02:09.135168,15.69812662,.00065195,97.5854,127.2412,149.6441,210.5199,0,U,43879,999,41462,.86630162E-3,.104241E-2,0
UWE-4,2018-111E,2026-07-09T06:35:43.813824,15.47549208,.00052707,97.5841,119.7053,218.3666,141.7210,0,U,43880,999,41419,.53767723E-3,.2764E-3,0
D-STAR ONE (SPARROW),2018-111F,2026-07-09T12:18:44.089920,15.82781928,.00068528,97.6090,133.6066,142.7997,217.3747,0,U,43881,999,41489,.9311303E-3,.199926E-2,0
JILIN-1 09,2019-005B,2026-07-10T06:39:40.609440,15.20715015,.00027765,97.4742,286.0461,47.0936,313.0532,0,U,43943,999,41265,.14107728E-3,.3033E-4,0
JILIN-1 10,2019-005E,2026-07-10T06:37:41.133792,15.25972808,.00080762,97.4791,290.0848,186.5012,173.6122,0,U,43946,999,41283,.1624244E-3,.4101E-4,0
EGYPTSAT-A (MISRSAT-A),2019-008A,2026-07-10T07:37:49.179648,14.72332780,.00016951,98.0183,255.7686,95.8383,264.3018,0,U,44047,999,39664,.2307626E-4,.97E-6,0
EMISAT,2019-018A,2026-07-10T07:02:38.916672,14.43647990,.00191186,98.4637,249.9657,145.2622,214.9821,0,U,44078,999,38339,.30755512E-4,.61E-6,0
JILIN-1 GAOFEN 3A,2019-032C,2026-07-10T06:50:13.799616,15.33130221,.00046771,44.9741,229.7684,68.4173,291.7210,0,U,44312,999,39138,.2190742E-3,.6843E-4,0
WT 1B,2019-032G,2026-07-10T08:26:16.111968,15.27663992,.00089118,44.9729,294.4555,7.1771,352.9238,0,U,44316,999,39062,.30183299E-3,.8034E-4,0
