COSMOS 2532 (RODNIK-S *)
1 43753U 18097C   26191.28799751 -.00000013  00000+0 -16339-3 0  9994
2 43753  82.5118 207.7854 0018244  11.4867 348.6625 12.42910113345143
MINXSS-2                
1 43758U 18099A   26191.17345577  .00030749  00000+0  57667-3 0  9998
2 43758  97.4528 268.1562 0008280 176.0626 184.0691 15.48559417417684
SIRION PATHFINDER-2     
1 43759U 18099B   26190.44534952  .00002996  00000+0  16503-3 0  9992
2 43759  97.4244 238.9746 0007887 212.4979 147.5769 15.14748987415994
AISTECHSAT 2            
1 43768U 18099L   26190.40518050  .00004147  00000+0  22132-3 0  9994
2 43768  97.4285 237.9540 0004036 200.8293 159.2775 15.15677823415643
FOX-1CLIFF (AO-95)      
1 43770U 18099N   26191.14495820  .00007917  00000+0  29949-3 0  9999
2 43770  97.4377 251.3120 0006982 261.2710  98.7738 15.27204994416723
RANGE-A                 
1 43773U 18099R   26190.65704564  .00003299  00000+0  18730-3 0  9990
2 43773  97.3959 232.5795 0008493 267.8830  92.1429 15.13579951415899
SNUSAT-2                
1 43782U 18099AA  26190.94949410  .00005973  00000+0  26289-3 0  9992
2 43782  97.4052 243.9863 0009657 206.5950 153.4792 15.22189397416494
SNUGLITE                
1 43784U 18099AC  26191.13830510  .00008129  00000+0  30311-3 0  9993
2 43784  97.3861 245.1973 0003107 173.2092 186.9190 15.27686786416829
ITASAT                  
1 43786U 18099AE  26191.14073297  .00004555  00000+0  21845-3 0  9998
2 43786  97.4020 242.1964 0010730 270.9097  89.0908 15.19343715416391
EAGLET-I                
1 43790U 18099AJ  26191.00159345  .00002684  00000+0  15505-3 0  9994
2 43790  97.4224 240.0663 0009401 265.0904  94.9254 15.13111405415784
ESEO                    
1 43792U 18099AL  26191.06280589  .00001160  00000+0  87351-4 0  9994
2 43792  97.3951 227.4708 0010670 253.6282 106.3771 15.04308602415243
THEA                    
1 43796U 18099AQ  26191.14252525  .00014138  00000+0  40740-3 0  9995
2 43796  97.4435 261.0687 0007540 191.2682 168.8394 15.35819372416215
ASTROCAST 0.1           
1 43798U 18099AS  26189.75535981  .00031250  00000+0  53623-3 0  9999
2 43798  97.4369 268.9463 0005634 145.5224 214.6394 15.51109059417771
JY1SAT (JO-97)          
1 43803U 18099AX  26191.12210713  .00013549  00000+0  40848-3 0  9999
2 43803  97.4121 254.0449 0006406 173.8802 186.2520 15.34409607417147
SUOMI-100               
1 43804U 18099AY  26191.11660909  .00009577  00000+0  34267-3 0  9999
2 43804  97.4180 251.4306 0010031 189.6683 170.4366 15.28953452416920
CENTAURI-1              
1 43809U 18099BD  26191.10261092  .00003652  00000+0  19005-3 0  9994
2 43809  97.4212 242.3314 0012619 244.5950 115.3977 15.16592790415972
GLOBAL-2                
1 43812U 18099BG  26191.08876811  .00001788  00000+0  11744-3 0  9996
2 43812  97.3551 226.6497 0007678  81.0751 279.1347 15.08809515415360
SEAHAWK-1               
1 43820U 18099BQ  26189.68683012  .00006404  00000+0  27376-3 0  9995
2 43820  97.3949 241.8476 0007304 223.0542 137.0124 15.23168577415805
SAUDISAT 5A             
1 43831U 18102A   26191.34478889  .00003642  00000+0  13464-3 0  9996
2 43831  97.3059 252.4809 0010826  58.9282 301.3019 15.28289390419216
SAUDISAT 5B             
1 43833U 18102C   26191.29436874  .00003540  00000+0  12997-3 0  9997
2 43833  97.3168 255.5430 0011573  60.5899 299.6494 15.28534002419327
ISAT                    
1 43879U 18111D   26190.25149462  .00104241  00000+0  86630-3 0  9991
2 43879  97.5854 127.2412 0006519 149.6441 210.5199 15.69812662414620
UWE-4                   
1 43880U 18111E   26190.27481266  .00027640  00000+0  53768-3 0  9999
2 43880  97.5841 119.7053 0005270 218.3666 141.7210 15.47549208414191
D-STAR ONE (SPARROW)    
1 43881U 18111F   26190.51301030  .00199926  00000+0  93113-3 0  9992
2 43881  97.6090 133.6066 0006852 142.7997 217.3747 15.82781928414890
JILIN-1 09              
1 43943U 19005B   26191.27755335  .00003033  00000+0  14108-3 0  9999
2 43943  97.4742 286.0461 0002776  47.0936 313.0532 15.20715015412658
JILIN-1 10              
1 43946U 19005E   26191.27617053  .00004101  00000+0  16242-3 0  9994
2 43946  97.4791 290.0848 0008076 186.5012 173.6122 15.25972808412837
EGYPTSAT-A (MISRSAT-A)  
1 44047U 19008A   26191.31793032  .00000097  00000+0  23076-4 0  9991
2 44047  98.0183 255.7686 0001695  95.8383 264.3018 14.72332780396645
EMISAT                  
1 44078U 19018A   26191.29350598  .00000061  00000+0  30756-4 0  9993
2 44078  98.4637 249.9657 0019118 145.2622 214.9821 14.43647990383396
JILIN-1 GAOFEN 3A       
1 44312U 19032C   26191.28488194  .00006843  00000+0  21907-3 0  9994
2 44312  44.9741 229.7684 0004677  68.4173 291.7210 15.33130221391383
WT 1B                   
1 44316U 19032G   26191.35157537  .00008034  00000+0  30183-3 0  9990
2 44316  44.9729 294.4555 0008911   7.1771 352.9238 15.27663992390623
